KUIPER-00035            
1 63748U 25088AA  25211.58335648 -.00061934  00000+0 -47179-2 0  9998
2 63748  51.8873  17.5754 0003486  65.7142 188.1775 15.01803784 14590
KUIPER-00037            
1 63749U 25088AB  25211.58335648 -.00049408  00000+0 -35096-2 0  9996
2 63749  51.8897  16.8813 0003865   2.6447 144.6649 15.04318991 15394
KUIPER-00038            
1 63750U 25088AC  25211.56000083 -.00130904  00000+0 -36693-2 0  9994
2 63750  51.8724  10.4955 0006289  52.5113 307.6444 15.36489295 14483
KUIPER-00039            
1 64500U 25134A   25211.11257003  .00031683  00000+0  92218-3 0  9995
2 64500  51.8686 154.3946 0007115 243.9089 116.1165 15.35117839  6417
KUIPER-00040            
1 64501U 25134B   25211.58335648 -.00714980  00000+0 -35402-1 0  9999
2 64501  51.8761 153.0158 0010961 259.3341 102.1289 15.19632114  6476
KUIPER-00041            
1 64502U 25134C   25211.25002315 -.00369259  00000+0 -19645-1 0  9992
2 64502  51.8748 154.8889 0008247 250.1062 262.8711 15.16493750  6411
KUIPER-00042            
1 64503U 25134D   25211.58335648 -.00735001  00000+0 -28545-1 0  9998
2 64503  51.8682 152.3948 0008297 252.3375  56.7982 15.27840513  6475
KUIPER-00043            
1 64504U 25134E   25211.04967594  .00030820  00000+0  90206-3 0  9991
2 64504  51.8689 154.7267 0007648 238.5532 121.4706 15.34953512  6783
