<?xml version="1.0" encoding="UTF-8"?>
<ndm xmlns:xsi="http://www.w3.org/2001/XMLSchema-instance" xsi:noNamespaceSchemaLocation="https://sanaregistry.org/r/ndmxml_unqualified/ndmxml-2.0.0-master-2.0.xsd">
<omm id="CCSDS_OMM_VERS" version="2.0">
<header><CREATION_DATE/><ORIGINATOR/></header><body><segment><metadata><OBJECT_NAME>KUIPER-00035</OBJECT_NAME><OBJECT_ID>2025-088AA</OBJECT_ID><CENTER_NAME>EARTH</CENTER_NAME><REF_FRAME>TEME</REF_FRAME><TIME_SYSTEM>UTC</TIME_SYSTEM><MEAN_ELEMENT_THEORY>SGP4</MEAN_ELEMENT_THEORY></metadata><data><meanElements><EPOCH>2025-07-30T14:00:01.999872</EPOCH><MEAN_MOTION>15.01803784</MEAN_MOTION><ECCENTRICITY>.0003486</ECCENTRICITY><INCLINATION>51.8873</INCLINATION><RA_OF_ASC_NODE>17.5754</RA_OF_ASC_NODE><ARG_OF_PERICENTER>65.7142</ARG_OF_PERICENTER><MEAN_ANOMALY>188.1775</MEAN_ANOMALY></meanElements><tleParameters><EPHEMERIS_TYPE>0</EPHEMERIS_TYPE><CLASSIFICATION_TYPE>U</CLASSIFICATION_TYPE><NORAD_CAT_ID>63748</NORAD_CAT_ID><ELEMENT_SET_NO>999</ELEMENT_SET_NO><REV_AT_EPOCH>1459</REV_AT_EPOCH><BSTAR>-.47179E-2</BSTAR><MEAN_MOTION_DOT>-.61934E-3</MEAN_MOTION_DOT><MEAN_MOTION_DDOT>0</MEAN_MOTION_DDOT></tleParameters></data></segment></body></omm>
<omm id="CCSDS_OMM_VERS" version="2.0">
<header><CREATION_DATE/><ORIGINATOR/></header><body><segment><metadata><OBJECT_NAME>KUIPER-00037</OBJECT_NAME><OBJECT_ID>2025-088AB</OBJECT_ID><CENTER_NAME>EARTH</CENTER_NAME><REF_FRAME>TEME</REF_FRAME><TIME_SYSTEM>UTC</TIME_SYSTEM><MEAN_ELEMENT_THEORY>SGP4</MEAN_ELEMENT_THEORY></metadata><data><meanElements><EPOCH>2025-07-30T14:00:01.999872</EPOCH><MEAN_MOTION>15.04318991</MEAN_MOTION><ECCENTRICITY>.0003865</ECCENTRICITY><INCLINATION>51.8897</INCLINATION><RA_OF_ASC_NODE>16.8813</RA_OF_ASC_NODE><ARG_OF_PERICENTER>2.6447</ARG_OF_PERICENTER><MEAN_ANOMALY>144.6649</MEAN_ANOMALY></meanElements><tleParameters><EPHEMERIS_TYPE>0</EPHEMERIS_TYPE><CLASSIFICATION_TYPE>U</CLASSIFICATION_TYPE><NORAD_CAT_ID>63749</NORAD_CAT_ID><ELEMENT_SET_NO>999</ELEMENT_SET_NO><REV_AT_EPOCH>1539</REV_AT_EPOCH><BSTAR>-.35096E-2</BSTAR><MEAN_MOTION_DOT>-.49408E-3</MEAN_MOTION_DOT><MEAN_MOTION_DDOT>0</MEAN_MOTION_DDOT></tleParameters></data></segment></body></omm>
<omm id="CCSDS_OMM_VERS" version="2.0">
<header><CREATION_DATE/><ORIGINATOR/></header><body><segment><metadata><OBJECT_NAME>KUIPER-00038</OBJECT_NAME><OBJECT_ID>2025-088AC</OBJECT_ID><CENTER_NAME>EARTH</CENTER_NAME><REF_FRAME>TEME</REF_FRAME><TIME_SYSTEM>UTC</TIME_SYSTEM><MEAN_ELEMENT_THEORY>SGP4</MEAN_ELEMENT_THEORY></metadata><data><meanElements><EPOCH>2025-07-30T13:26:24.071712</EPOCH><MEAN_MOTION>15.36489295</MEAN_MOTION><ECCENTRICITY>.0006289</ECCENTRICITY><INCLINATION>51.8724</INCLINATION><RA_OF_ASC_NODE>10.4955</RA_OF_ASC_NODE><ARG_OF_PERICENTER>52.5113</ARG_OF_PERICENTER><MEAN_ANOMALY>307.6444</MEAN_ANOMALY></meanElements><tleParameters><EPHEMERIS_TYPE>0</EPHEMERIS_TYPE><CLASSIFICATION_TYPE>U</CLASSIFICATION_TYPE><NORAD_CAT_ID>63750</NORAD_CAT_ID><ELEMENT_SET_NO>999</ELEMENT_SET_NO><REV_AT_EPOCH>1448</REV_AT_EPOCH><BSTAR>-.36693E-2</BSTAR><MEAN_MOTION_DOT>-.130904E-2</MEAN_MOTION_DOT><MEAN_MOTION_DDOT>0</MEAN_MOTION_DDOT></tleParameters></data></segment></body></omm>
<omm id="CCSDS_OMM_VERS" version="2.0">
<header><CREATION_DATE/><ORIGINATOR/></header><body><segment><metadata><OBJECT_NAME>KUIPER-00039</OBJECT_NAME><OBJECT_ID>2025-134A</OBJECT_ID><CENTER_NAME>EARTH</CENTER_NAME><REF_FRAME>TEME</REF_FRAME><TIME_SYSTEM>UTC</TIME_SYSTEM><MEAN_ELEMENT_THEORY>SGP4</MEAN_ELEMENT_THEORY></metadata><data><meanElements><EPOCH>2025-07-30T02:42:06.050592</EPOCH><MEAN_MOTION>15.35117839</MEAN_MOTION><ECCENTRICITY>.0007115</ECCENTRICITY><INCLINATION>51.8686</INCLINATION><RA_OF_ASC_NODE>154.3946</RA_OF_ASC_NODE><ARG_OF_PERICENTER>243.9089</ARG_OF_PERICENTER><MEAN_ANOMALY>116.1165</MEAN_ANOMALY></meanElements><tleParameters><EPHEMERIS_TYPE>0</EPHEMERIS_TYPE><CLASSIFICATION_TYPE>U</CLASSIFICATION_TYPE><NORAD_CAT_ID>64500</NORAD_CAT_ID><ELEMENT_SET_NO>999</ELEMENT_SET_NO><REV_AT_EPOCH>641</REV_AT_EPOCH><BSTAR>.92218E-3</BSTAR><MEAN_MOTION_DOT>.31683E-3</MEAN_MOTION_DOT><MEAN_MOTION_DDOT>0</MEAN_MOTION_DDOT></tleParameters></data></segment></body></omm>
<omm id="CCSDS_OMM_VERS" version="2.0">
<header><CREATION_DATE/><ORIGINATOR/></header><body><segment><metadata><OBJECT_NAME>KUIPER-00040</OBJECT_NAME><OBJECT_ID>2025-134B</OBJECT_ID><CENTER_NAME>EARTH</CENTER_NAME><REF_FRAME>TEME</REF_FRAME><TIME_SYSTEM>UTC</TIME_SYSTEM><MEAN_ELEMENT_THEORY>SGP4</MEAN_ELEMENT_THEORY></metadata><data><meanElements><EPOCH>2025-07-30T14:00:01.999872</EPOCH><MEAN_MOTION>15.19632114</MEAN_MOTION><ECCENTRICITY>.0010961</ECCENTRICITY><INCLINATION>51.8761</INCLINATION><RA_OF_ASC_NODE>153.0158</RA_OF_ASC_NODE><ARG_OF_PERICENTER>259.3341</ARG_OF_PERICENTER><MEAN_ANOMALY>102.1289</MEAN_ANOMALY></meanElements><tleParameters><EPHEMERIS_TYPE>0</EPHEMERIS_TYPE><CLASSIFICATION_TYPE>U</CLASSIFICATION_TYPE><NORAD_CAT_ID>64501</NORAD_CAT_ID><ELEMENT_SET_NO>999</ELEMENT_SET_NO><REV_AT_EPOCH>647</REV_AT_EPOCH><BSTAR>-.35402E-1</BSTAR><MEAN_MOTION_DOT>-.71498E-2</MEAN_MOTION_DOT><MEAN_MOTION_DDOT>0</MEAN_MOTION_DDOT></tleParameters></data></segment></body></omm>
<omm id="CCSDS_OMM_VERS" version="2.0">
<header><CREATION_DATE/><ORIGINATOR/></header><body><segment><metadata><OBJECT_NAME>KUIPER-00041</OBJECT_NAME><OBJECT_ID>2025-134C</OBJECT_ID><CENTER_NAME>EARTH</CENTER_NAME><REF_FRAME>TEME</REF_FRAME><TIME_SYSTEM>UTC</TIME_SYSTEM><MEAN_ELEMENT_THEORY>SGP4</MEAN_ELEMENT_THEORY></metadata><data><meanElements><EPOCH>2025-07-30T06:00:02.000160</EPOCH><MEAN_MOTION>15.16493750</MEAN_MOTION><ECCENTRICITY>.0008247</ECCENTRICITY><INCLINATION>51.8748</INCLINATION><RA_OF_ASC_NODE>154.8889</RA_OF_ASC_NODE><ARG_OF_PERICENTER>250.1062</ARG_OF_PERICENTER><MEAN_ANOMALY>262.8711</MEAN_ANOMALY></meanElements><tleParameters><EPHEMERIS_TYPE>0</EPHEMERIS_TYPE><CLASSIFICATION_TYPE>U</CLASSIFICATION_TYPE><NORAD_CAT_ID>64502</NORAD_CAT_ID><ELEMENT_SET_NO>999</ELEMENT_SET_NO><REV_AT_EPOCH>641</REV_AT_EPOCH><BSTAR>-.19645E-1</BSTAR><MEAN_MOTION_DOT>-.369259E-2</MEAN_MOTION_DOT><MEAN_MOTION_DDOT>0</MEAN_MOTION_DDOT></tleParameters></data></segment></body></omm>
<omm id="CCSDS_OMM_VERS" version="2.0">
<header><CREATION_DATE/><ORIGINATOR/></header><body><segment><metadata><OBJECT_NAME>KUIPER-00042</OBJECT_NAME><OBJECT_ID>2025-134D</OBJECT_ID><CENTER_NAME>EARTH</CENTER_NAME><REF_FRAME>TEME</REF_FRAME><TIME_SYSTEM>UTC</TIME_SYSTEM><MEAN_ELEMENT_THEORY>SGP4</MEAN_ELEMENT_THEORY></metadata><data><meanElements><EPOCH>2025-07-30T14:00:01.999872</EPOCH><MEAN_MOTION>15.27840513</MEAN_MOTION><ECCENTRICITY>.0008297</ECCENTRICITY><INCLINATION>51.8682</INCLINATION><RA_OF_ASC_NODE>152.3948</RA_OF_ASC_NODE><ARG_OF_PERICENTER>252.3375</ARG_OF_PERICENTER><MEAN_ANOMALY>56.7982</MEAN_ANOMALY></meanElements><tleParameters><EPHEMERIS_TYPE>0</EPHEMERIS_TYPE><CLASSIFICATION_TYPE>U</CLASSIFICATION_TYPE><NORAD_CAT_ID>64503</NORAD_CAT_ID><ELEMENT_SET_NO>999</ELEMENT_SET_NO><REV_AT_EPOCH>647</REV_AT_EPOCH><BSTAR>-.28545E-1</BSTAR><MEAN_MOTION_DOT>-.735001E-2</MEAN_MOTION_DOT><MEAN_MOTION_DDOT>0</MEAN_MOTION_DDOT></tleParameters></data></segment></body></omm>
<omm id="CCSDS_OMM_VERS" version="2.0">
<header><CREATION_DATE/><ORIGINATOR/></header><body><segment><metadata><OBJECT_NAME>KUIPER-00043</OBJECT_NAME><OBJECT_ID>2025-134E</OBJECT_ID><CENTER_NAME>EARTH</CENTER_NAME><REF_FRAME>TEME</REF_FRAME><TIME_SYSTEM>UTC</TIME_SYSTEM><MEAN_ELEMENT_THEORY>SGP4</MEAN_ELEMENT_THEORY></metadata><data><meanElements><EPOCH>2025-07-30T01:11:32.001216</EPOCH><MEAN_MOTION>15.34953512</MEAN_MOTION><ECCENTRICITY>.0007648</ECCENTRICITY><INCLINATION>51.8689</INCLINATION><RA_OF_ASC_NODE>154.7267</RA_OF_ASC_NODE><ARG_OF_PERICENTER>238.5532</ARG_OF_PERICENTER><MEAN_ANOMALY>121.4706</MEAN_ANOMALY></meanElements><tleParameters><EPHEMERIS_TYPE>0</EPHEMERIS_TYPE><CLASSIFICATION_TYPE>U</CLASSIFICATION_TYPE><NORAD_CAT_ID>64504</NORAD_CAT_ID><ELEMENT_SET_NO>999</ELEMENT_SET_NO><REV_AT_EPOCH>678</REV_AT_EPOCH><BSTAR>.90206E-3</BSTAR><MEAN_MOTION_DOT>.3082E-3</MEAN_MOTION_DOT><MEAN_MOTION_DDOT>0</MEAN_MOTION_DDOT></tleParameters></data></segment></body></omm>

</ndm>
